QIANFAN-81              
1 63167U 25046J   26017.26132352  .00000180  00000+0  26039-3 0  9991
2 63167  88.9794 316.2010 0016056  23.8919 336.2974 13.51016691 52287
QIANFAN-82              
1 63168U 25046K   26017.29609014  .00000180  00000+0  25927-3 0  9994
2 63168  88.9794 316.2415 0014378  31.6259 328.5753 13.50989670 52279
QIANFAN-83              
1 63169U 25046L   26017.25667024  .00000213  00000+0  26089-3 0  9993
2 63169  88.9795 315.9522 0015227  16.2861 343.8783 13.61991885 52432
QIANFAN-84              
1 63170U 25046M   26017.24955657  .00000169  00000+0  24230-3 0  9992
2 63170  88.9794 316.3787 0017253  27.5646 332.6417 13.50999319 52199
QIANFAN-85              
1 63171U 25046N   26017.24658118  .00000162  00000+0  23279-3 0  9990
2 63171  88.9793 316.2507 0014715  30.5296 329.6709 13.50988436 52269
QIANFAN-86              
1 63172U 25046P   26017.25490477  .00000177  00000+0  25590-3 0  9998
2 63172  88.9796 316.1128 0012693  35.1997 324.9990 13.50990332 52340
QIANFAN-87              
1 63173U 25046Q   26017.30035631  .00000177  00000+0  25581-3 0  9992
2 63173  88.9792 316.2184 0013229  30.6668 329.5253 13.50987988 52280
QIANFAN-88              
1 63174U 25046R   26017.16839400  .00000168  00000+0  24207-3 0  9997
2 63174  88.9794 316.1875 0013802  37.8801 322.3318 13.50994125 52299
