<?xml version="1.0" encoding="UTF-8"?>
<ndm xmlns:xsi="http://www.w3.org/2001/XMLSchema-instance" xsi:noNamespaceSchemaLocation="https://sanaregistry.org/r/ndmxml_unqualified/ndmxml-2.0.0-master-2.0.xsd">
<omm id="CCSDS_OMM_VERS" version="2.0">
<header><CREATION_DATE/><ORIGINATOR/></header><body><segment><metadata><OBJECT_NAME>QIANFAN-81</OBJECT_NAME><OBJECT_ID>2025-046J</OBJECT_ID><CENTER_NAME>EARTH</CENTER_NAME><REF_FRAME>TEME</REF_FRAME><TIME_SYSTEM>UTC</TIME_SYSTEM><MEAN_ELEMENT_THEORY>SGP4</MEAN_ELEMENT_THEORY></metadata><data><meanElements><EPOCH>2026-01-17T06:16:18.352128</EPOCH><MEAN_MOTION>13.51016691</MEAN_MOTION><ECCENTRICITY>.00160565</ECCENTRICITY><INCLINATION>88.9794</INCLINATION><RA_OF_ASC_NODE>316.2010</RA_OF_ASC_NODE><ARG_OF_PERICENTER>23.8919</ARG_OF_PERICENTER><MEAN_ANOMALY>336.2974</MEAN_ANOMALY></meanElements><tleParameters><EPHEMERIS_TYPE>0</EPHEMERIS_TYPE><CLASSIFICATION_TYPE>U</CLASSIFICATION_TYPE><NORAD_CAT_ID>63167</NORAD_CAT_ID><ELEMENT_SET_NO>999</ELEMENT_SET_NO><REV_AT_EPOCH>5228</REV_AT_EPOCH><BSTAR>.26039425E-3</BSTAR><MEAN_MOTION_DOT>.18E-5</MEAN_MOTION_DOT><MEAN_MOTION_DDOT>0</MEAN_MOTION_DDOT></tleParameters></data></segment></body></omm>
<omm id="CCSDS_OMM_VERS" version="2.0">
<header><CREATION_DATE/><ORIGINATOR/></header><body><segment><metadata><OBJECT_NAME>QIANFAN-82</OBJECT_NAME><OBJECT_ID>2025-046K</OBJECT_ID><CENTER_NAME>EARTH</CENTER_NAME><REF_FRAME>TEME</REF_FRAME><TIME_SYSTEM>UTC</TIME_SYSTEM><MEAN_ELEMENT_THEORY>SGP4</MEAN_ELEMENT_THEORY></metadata><data><meanElements><EPOCH>2026-01-17T07:06:22.188096</EPOCH><MEAN_MOTION>13.50989670</MEAN_MOTION><ECCENTRICITY>.00143784</ECCENTRICITY><INCLINATION>88.9794</INCLINATION><RA_OF_ASC_NODE>316.2415</RA_OF_ASC_NODE><ARG_OF_PERICENTER>31.6259</ARG_OF_PERICENTER><MEAN_ANOMALY>328.5753</MEAN_ANOMALY></meanElements><tleParameters><EPHEMERIS_TYPE>0</EPHEMERIS_TYPE><CLASSIFICATION_TYPE>U</CLASSIFICATION_TYPE><NORAD_CAT_ID>63168</NORAD_CAT_ID><ELEMENT_SET_NO>999</ELEMENT_SET_NO><REV_AT_EPOCH>5227</REV_AT_EPOCH><BSTAR>.25926849E-3</BSTAR><MEAN_MOTION_DOT>.18E-5</MEAN_MOTION_DOT><MEAN_MOTION_DDOT>0</MEAN_MOTION_DDOT></tleParameters></data></segment></body></omm>
<omm id="CCSDS_OMM_VERS" version="2.0">
<header><CREATION_DATE/><ORIGINATOR/></header><body><segment><metadata><OBJECT_NAME>QIANFAN-83</OBJECT_NAME><OBJECT_ID>2025-046L</OBJECT_ID><CENTER_NAME>EARTH</CENTER_NAME><REF_FRAME>TEME</REF_FRAME><TIME_SYSTEM>UTC</TIME_SYSTEM><MEAN_ELEMENT_THEORY>SGP4</MEAN_ELEMENT_THEORY></metadata><data><meanElements><EPOCH>2026-01-17T06:09:36.308736</EPOCH><MEAN_MOTION>13.61991885</MEAN_MOTION><ECCENTRICITY>.0015227</ECCENTRICITY><INCLINATION>88.9795</INCLINATION><RA_OF_ASC_NODE>315.9522</RA_OF_ASC_NODE><ARG_OF_PERICENTER>16.2861</ARG_OF_PERICENTER><MEAN_ANOMALY>343.8783</MEAN_ANOMALY></meanElements><tleParameters><EPHEMERIS_TYPE>0</EPHEMERIS_TYPE><CLASSIFICATION_TYPE>U</CLASSIFICATION_TYPE><NORAD_CAT_ID>63169</NORAD_CAT_ID><ELEMENT_SET_NO>999</ELEMENT_SET_NO><REV_AT_EPOCH>5243</REV_AT_EPOCH><BSTAR>.26088622E-3</BSTAR><MEAN_MOTION_DOT>.213E-5</MEAN_MOTION_DOT><MEAN_MOTION_DDOT>0</MEAN_MOTION_DDOT></tleParameters></data></segment></body></omm>
<omm id="CCSDS_OMM_VERS" version="2.0">
<header><CREATION_DATE/><ORIGINATOR/></header><body><segment><metadata><OBJECT_NAME>QIANFAN-84</OBJECT_NAME><OBJECT_ID>2025-046M</OBJECT_ID><CENTER_NAME>EARTH</CENTER_NAME><REF_FRAME>TEME</REF_FRAME><TIME_SYSTEM>UTC</TIME_SYSTEM><MEAN_ELEMENT_THEORY>SGP4</MEAN_ELEMENT_THEORY></metadata><data><meanElements><EPOCH>2026-01-17T05:59:21.687648</EPOCH><MEAN_MOTION>13.50999319</MEAN_MOTION><ECCENTRICITY>.00172532</ECCENTRICITY><INCLINATION>88.9794</INCLINATION><RA_OF_ASC_NODE>316.3787</RA_OF_ASC_NODE><ARG_OF_PERICENTER>27.5646</ARG_OF_PERICENTER><MEAN_ANOMALY>332.6417</MEAN_ANOMALY></meanElements><tleParameters><EPHEMERIS_TYPE>0</EPHEMERIS_TYPE><CLASSIFICATION_TYPE>U</CLASSIFICATION_TYPE><NORAD_CAT_ID>63170</NORAD_CAT_ID><ELEMENT_SET_NO>999</ELEMENT_SET_NO><REV_AT_EPOCH>5219</REV_AT_EPOCH><BSTAR>.24230268E-3</BSTAR><MEAN_MOTION_DOT>.169E-5</MEAN_MOTION_DOT><MEAN_MOTION_DDOT>0</MEAN_MOTION_DDOT></tleParameters></data></segment></body></omm>
<omm id="CCSDS_OMM_VERS" version="2.0">
<header><CREATION_DATE/><ORIGINATOR/></header><body><segment><metadata><OBJECT_NAME>QIANFAN-85</OBJECT_NAME><OBJECT_ID>2025-046N</OBJECT_ID><CENTER_NAME>EARTH</CENTER_NAME><REF_FRAME>TEME</REF_FRAME><TIME_SYSTEM>UTC</TIME_SYSTEM><MEAN_ELEMENT_THEORY>SGP4</MEAN_ELEMENT_THEORY></metadata><data><meanElements><EPOCH>2026-01-17T05:55:04.613952</EPOCH><MEAN_MOTION>13.50988436</MEAN_MOTION><ECCENTRICITY>.00147151</ECCENTRICITY><INCLINATION>88.9793</INCLINATION><RA_OF_ASC_NODE>316.2507</RA_OF_ASC_NODE><ARG_OF_PERICENTER>30.5296</ARG_OF_PERICENTER><MEAN_ANOMALY>329.6709</MEAN_ANOMALY></meanElements><tleParameters><EPHEMERIS_TYPE>0</EPHEMERIS_TYPE><CLASSIFICATION_TYPE>U</CLASSIFICATION_TYPE><NORAD_CAT_ID>63171</NORAD_CAT_ID><ELEMENT_SET_NO>999</ELEMENT_SET_NO><REV_AT_EPOCH>5226</REV_AT_EPOCH><BSTAR>.23278802E-3</BSTAR><MEAN_MOTION_DOT>.162E-5</MEAN_MOTION_DOT><MEAN_MOTION_DDOT>0</MEAN_MOTION_DDOT></tleParameters></data></segment></body></omm>
<omm id="CCSDS_OMM_VERS" version="2.0">
<header><CREATION_DATE/><ORIGINATOR/></header><body><segment><metadata><OBJECT_NAME>QIANFAN-86</OBJECT_NAME><OBJECT_ID>2025-046P</OBJECT_ID><CENTER_NAME>EARTH</CENTER_NAME><REF_FRAME>TEME</REF_FRAME><TIME_SYSTEM>UTC</TIME_SYSTEM><MEAN_ELEMENT_THEORY>SGP4</MEAN_ELEMENT_THEORY></metadata><data><meanElements><EPOCH>2026-01-17T06:07:03.772128</EPOCH><MEAN_MOTION>13.50990332</MEAN_MOTION><ECCENTRICITY>.00126935</ECCENTRICITY><INCLINATION>88.9796</INCLINATION><RA_OF_ASC_NODE>316.1128</RA_OF_ASC_NODE><ARG_OF_PERICENTER>35.1997</ARG_OF_PERICENTER><MEAN_ANOMALY>324.9990</MEAN_ANOMALY></meanElements><tleParameters><EPHEMERIS_TYPE>0</EPHEMERIS_TYPE><CLASSIFICATION_TYPE>U</CLASSIFICATION_TYPE><NORAD_CAT_ID>63172</NORAD_CAT_ID><ELEMENT_SET_NO>999</ELEMENT_SET_NO><REV_AT_EPOCH>5234</REV_AT_EPOCH><BSTAR>.25589603E-3</BSTAR><MEAN_MOTION_DOT>.177E-5</MEAN_MOTION_DOT><MEAN_MOTION_DDOT>0</MEAN_MOTION_DDOT></tleParameters></data></segment></body></omm>
<omm id="CCSDS_OMM_VERS" version="2.0">
<header><CREATION_DATE/><ORIGINATOR/></header><body><segment><metadata><OBJECT_NAME>QIANFAN-87</OBJECT_NAME><OBJECT_ID>2025-046Q</OBJECT_ID><CENTER_NAME>EARTH</CENTER_NAME><REF_FRAME>TEME</REF_FRAME><TIME_SYSTEM>UTC</TIME_SYSTEM><MEAN_ELEMENT_THEORY>SGP4</MEAN_ELEMENT_THEORY></metadata><data><meanElements><EPOCH>2026-01-17T07:12:30.785184</EPOCH><MEAN_MOTION>13.50987988</MEAN_MOTION><ECCENTRICITY>.00132294</ECCENTRICITY><INCLINATION>88.9792</INCLINATION><RA_OF_ASC_NODE>316.2184</RA_OF_ASC_NODE><ARG_OF_PERICENTER>30.6668</ARG_OF_PERICENTER><MEAN_ANOMALY>329.5253</MEAN_ANOMALY></meanElements><tleParameters><EPHEMERIS_TYPE>0</EPHEMERIS_TYPE><CLASSIFICATION_TYPE>U</CLASSIFICATION_TYPE><NORAD_CAT_ID>63173</NORAD_CAT_ID><ELEMENT_SET_NO>999</ELEMENT_SET_NO><REV_AT_EPOCH>5228</REV_AT_EPOCH><BSTAR>.25581273E-3</BSTAR><MEAN_MOTION_DOT>.177E-5</MEAN_MOTION_DOT><MEAN_MOTION_DDOT>0</MEAN_MOTION_DDOT></tleParameters></data></segment></body></omm>
<omm id="CCSDS_OMM_VERS" version="2.0">
<header><CREATION_DATE/><ORIGINATOR/></header><body><segment><metadata><OBJECT_NAME>QIANFAN-88</OBJECT_NAME><OBJECT_ID>2025-046R</OBJECT_ID><CENTER_NAME>EARTH</CENTER_NAME><REF_FRAME>TEME</REF_FRAME><TIME_SYSTEM>UTC</TIME_SYSTEM><MEAN_ELEMENT_THEORY>SGP4</MEAN_ELEMENT_THEORY></metadata><data><meanElements><EPOCH>2026-01-17T04:02:29.241600</EPOCH><MEAN_MOTION>13.50994125</MEAN_MOTION><ECCENTRICITY>.00138023</ECCENTRICITY><INCLINATION>88.9794</INCLINATION><RA_OF_ASC_NODE>316.1875</RA_OF_ASC_NODE><ARG_OF_PERICENTER>37.8801</ARG_OF_PERICENTER><MEAN_ANOMALY>322.3318</MEAN_ANOMALY></meanElements><tleParameters><EPHEMERIS_TYPE>0</EPHEMERIS_TYPE><CLASSIFICATION_TYPE>U</CLASSIFICATION_TYPE><NORAD_CAT_ID>63174</NORAD_CAT_ID><ELEMENT_SET_NO>999</ELEMENT_SET_NO><REV_AT_EPOCH>5229</REV_AT_EPOCH><BSTAR>.24206918E-3</BSTAR><MEAN_MOTION_DOT>.168E-5</MEAN_MOTION_DOT><MEAN_MOTION_DDOT>0</MEAN_MOTION_DDOT></tleParameters></data></segment></body></omm>

</ndm>
